NORAD_CAT_ID,OBJECT_NAME,OBJECT_TYPE,EPOCH,MEAN_MOTION,ECCENTRICITY,INCLINATION,RA_OF_ASC_NODE,ARG_OF_PERICENTER,MEAN_ANOMALY,BSTAR,MEAN_MOTION_DOT,MEAN_MOTION_DDOT,TLE_LINE0,TLE_LINE1,TLE_LINE2,SEMIMAJOR_AXIS,PERIOD,APOGEE,PERIGEE,DECAYED
55308.0,STARLINK-5292,PAYLOAD,2023-06-05 04:01:13,15.69911119,0.0003496,69.9966,44.7472,275.8951,84.1847,-1.5464e-05,-2.071e-05,0.0,0 STARLINK-5292,1 55308U 23010AR  23156.16751703 -.00002071  00000-0 -15464-4 0  9990,2 55308  69.9966  44.7472 0003496 275.8951  84.1847 15.69911119 21957,6737.288,91.725,361.509,356.798,0.0
55308.0,STARLINK-5292,PAYLOAD,2023-06-05 17:46:58,15.69920417,0.0003666,69.9994,43.1385,273.041,87.0367,-2.363e-06,-4.97e-06,0.0,0 STARLINK-5292,1 55308U 23010AR  23156.74095716 -.00000497  00000-0 -23630-5 0  9994,2 55308  69.9994  43.1385 0003666 273.0410  87.0367 15.69920417 22044,6737.262,91.724,361.597,356.657,0.0
55308.0,STARLINK-5292,PAYLOAD,2023-06-05 19:18:43,15.69924329,0.0003482,69.9993,42.9595,270.3667,89.713,5.498e-06,4.48e-06,0.0,0 STARLINK-5292,1 55308U 23010AR  23156.80467219  .00000448  00000-0  54980-5 0  9998,2 55308  69.9993  42.9595 0003482 270.3667  89.7130 15.69924329 23249,6737.25,91.724,361.461,356.77,0.0
55308.0,STARLINK-5292,PAYLOAD,2023-06-06 02:57:29,15.69927147,0.0003525,69.9996,42.0661,274.1313,85.948,7.2437e-06,6.58e-06,0.0,0 STARLINK-5292,1 55308U 23010AR  23157.12325487  .00000658  00000-0  72437-5 0  9994,2 55308  69.9996  42.0661 0003525 274.1313  85.9480 15.69927147 22106,6737.242,91.724,361.482,356.733,0.0
55308.0,STARLINK-5292,PAYLOAD,2023-06-06 19:46:45,15.69924398,0.0003502,70.0005,40.0936,269.6004,90.479,5.3837e-06,4.35e-06,0.0,0 STARLINK-5292,1 55308U 23010AR  23157.82414000  .00000435  00000-0  53837-5 0  9997,2 55308  70.0005  40.0936 0003502 269.6004  90.4790 15.69924398 23408,6737.25,91.724,361.475,356.756,0.0
55308.0,STARLINK-5292,PAYLOAD,2023-06-07 03:25:31,15.69930216,0.0003826,69.9997,39.1977,270.1972,89.8785,1.5543e-05,1.657e-05,0.0,0 STARLINK-5292,1 55308U 23010AR  23158.14272073  .00001657  00000-0  15543-4 0  9993,2 55308  69.9997  39.1977 0003826 270.1972  89.8785 15.69930216 22264,6737.234,91.724,361.676,356.521,0.0
55308.0,STARLINK-5292,PAYLOAD,2023-06-07 18:43:02,15.69926187,0.0003891,69.999,37.4035,273.7681,86.307,-1.4725e-06,-3.9e-06,0.0,0 STARLINK-5292,1 55308U 23010AR  23158.77989115 -.00000390  00000-0 -14725-5 0  9991,2 55308  69.9990  37.4035 0003891 273.7681  86.3070 15.69926187 22363,6737.245,91.724,361.732,356.489,0.0
55308.0,STARLINK-5292,PAYLOAD,2023-06-08 00:50:02,15.69933275,0.0003806,69.9989,36.6873,273.7637,86.3123,1.4964e-05,1.587e-05,0.0,0 STARLINK-5292,1 55308U 23010AR  23159.03475405  .00001587  00000-0  14964-4 0  9994,2 55308  69.9989  36.6873 0003806 273.7637  86.3123 15.69933275 22409,6737.225,91.724,361.654,356.526,0.0
55308.0,STARLINK-5292,PAYLOAD,2023-06-09 01:18:04,15.69931989,0.000413,69.9981,33.8218,275.8448,84.2276,2.3464e-05,2.61e-05,0.0,0 STARLINK-5292,1 55308U 23010AR  23160.05422176  .00002610  00000-0  23464-4 0  9998,2 55308  69.9981  33.8218 0004130 275.8448  84.2276 15.69931989 22560,6737.229,91.724,361.876,356.311,0.0
55308.0,STARLINK-5292,PAYLOAD,2023-06-09 08:56:51,15.69915487,0.0003697,69.9981,32.9235,271.0071,89.0701,1.4875e-06,-3.4e-07,0.0,0 STARLINK-5292,1 55308U 23010AR  23160.37281493 -.00000034  00000-0  14875-5 0  9994,2 55308  69.9981  32.9235 0003697 271.0071  89.0701 15.69915487 22613,6737.276,91.725,361.632,356.65,0.0
55308.0,STARLINK-5292,PAYLOAD,2023-06-09 16:35:36,15.69921218,0.0003776,69.9999,32.0299,261.2726,98.8042,2.693e-06,1.11e-06,0.0,0 STARLINK-5292,1 55308U 23010AR  23160.69139462  .00000111  00000-0  26930-5 0  9997,2 55308  69.9999  32.0299 0003776 261.2726  98.8042 15.69921218 23851,6737.259,91.724,361.668,356.58,0.0
55308.0,STARLINK-5292,PAYLOAD,2023-06-10 01:46:22,15.69627319,0.0002191,69.9999,30.956,233.3613,126.7381,-0.00051884,-0.00061375,0.0,0 STARLINK-5292,1 55308U 23010AR  23161.07387489 -.00061375  00000-0 -51884-3 0  9999,2 55308  69.9999  30.9560 0002191 233.3613 126.7381 15.69627319 22721,6738.1,91.742,361.442,358.489,0.0
55308.0,STARLINK-5292,PAYLOAD,2023-06-10 17:04:05,15.69580786,0.0002263,69.9988,29.1644,240.8659,119.231,-0.00045636,-0.00053954,0.0,0 STARLINK-5292,1 55308U 23010AR  23161.71117492 -.00053954  00000-0 -45636-3 0  9997,2 55308  69.9988  29.1644 0002263 240.8659 119.2310 15.69580786 22821,6738.234,91.744,361.623,358.574,0.0
55308.0,STARLINK-5292,PAYLOAD,2023-06-11 20:35:10,15.69936328,0.0003607,69.9984,25.9379,267.2487,92.8296,2.4492e-05,2.735e-05,0.0,0 STARLINK-5292,1 55308U 23010AR  23162.85775619  .00002735  00000-0  24492-4 0  9991,2 55308  69.9984  25.9379 0003607 267.2487  92.8296 15.69936328 24199,6737.216,91.723,361.511,356.651,0.0
55308.0,STARLINK-5292,PAYLOAD,2023-06-11 23:38:40,15.69930363,0.0003767,70.0001,25.5816,265.6902,94.3864,1.1717e-05,1.197e-05,0.0,0 STARLINK-5292,1 55308U 23010AR  23162.98519131  .00001197  00000-0  11717-4 0  9997,2 55308  70.0001  25.5816 0003767 265.6902  94.3864 15.69930363 23027,6737.233,91.724,361.636,356.56,0.0
55308.0,STARLINK-5292,PAYLOAD,2023-06-12 21:03:17,15.69811997,0.000339,70.0006,23.0741,275.4457,84.6352,-0.00016298,-0.00019673,0.0,0 STARLINK-5292,1 55308U 23010AR  23163.87728120 -.00019673  00000-0 -16298-3 0  9994,2 55308  70.0006  23.0741 0003390 275.4457  84.6352 15.69811997 23168,6737.572,91.731,361.721,357.153,0.0
55308.0,STARLINK-5292,PAYLOAD,2023-06-12 22:34:58,15.6989694,0.0003663,70.0005,22.8948,271.2251,88.8525,8.1121e-07,-1.15e-06,0.0,0 STARLINK-5292,1 55308U 23010AR  23163.94095985 -.00000115  00000-0  81121-6 0  9998,2 55308  70.0005  22.8948 0003663 271.2251  88.8525 15.69896940 24364,6737.329,91.726,361.662,356.726,0.0
55308.0,STARLINK-5292,PAYLOAD,2023-06-13 00:06:43,15.69921176,0.0003435,70.0003,22.7156,261.1594,98.9212,3.8395e-05,4.406e-05,0.0,0 STARLINK-5292,1 55308U 23010AR  23164.00466621  .00004406  00000-0  38395-4 0  9994,2 55308  70.0003  22.7156 0003435 261.1594  98.9212 15.69921176 23181,6737.26,91.724,361.439,356.81,0.0
55308.0,STARLINK-5292,PAYLOAD,2023-06-14 08:13:30,15.699352,0.0003605,69.9999,18.9546,263.0165,97.0621,3.8319e-06,2.48e-06,0.0,0 STARLINK-5292,1 55308U 23010AR  23165.34270920  .00000248  00000-0  38319-5 0  9994,2 55308  69.9999  18.9546 0003605 263.0165  97.0621 15.69935200 23396,6737.219,91.724,361.513,356.656,0.0
55308.0,STARLINK-5292,PAYLOAD,2023-06-14 14:20:31,15.69921772,0.000358,69.9993,18.2367,267.128,92.9506,-7.6139e-06,-1.128e-05,0.0,0 STARLINK-5292,1 55308U 23010AR  23165.59758426 -.00001128  00000-0 -76139-5 0  9995,2 55308  69.9993  18.2367 0003580 267.1280  92.9506 15.69921772 23439,6737.258,91.724,361.535,356.711,0.0
55308.0,STARLINK-5292,PAYLOAD,2023-06-14 20:27:31,15.69928368,0.0003643,69.997,17.5181,266.0548,94.0232,4.2817e-06,3.02e-06,0.0,0 STARLINK-5292,1 55308U 23010AR  23165.85244916  .00000302  00000-0  42817-5 0  9995,2 55308  69.9970  17.5181 0003643 266.0548  94.0232 15.69928368 24668,6737.239,91.724,361.558,356.65,0.0
55308.0,STARLINK-5292,PAYLOAD,2023-06-15 08:41:32,15.69929484,0.0003781,69.999,16.0854,266.4309,93.6454,3.973e-06,2.65e-06,0.0,0 STARLINK-5292,1 55308U 23010AR  23166.36217951  .00000265  00000-0  39730-5 0  9999,2 55308  69.9990  16.0854 0003781 266.4309  93.6454 15.69929484 23551,6737.236,91.724,361.648,356.553,0.0
55308.0,STARLINK-5292,PAYLOAD,2023-06-15 13:16:48,15.69920908,0.0003747,69.9988,15.5485,266.5687,93.508,-1.7471e-06,-4.23e-06,0.0,0 STARLINK-5292,1 55308U 23010AR  23166.55333498 -.00000423  00000-0 -17471-5 0  9991,2 55308  69.9988  15.5485 0003747 266.5687  93.5080 15.69920908 24775,6737.26,91.724,361.65,356.601,0.0
55308.0,STARLINK-5292,PAYLOAD,2023-06-15 16:20:18,15.69922174,0.0003677,69.9989,15.1909,267.5941,92.4834,3.6011e-07,-1.7e-06,0.0,0 STARLINK-5292,1 55308U 23010AR  23166.68076811 -.00000170  00000-0  36011-6 0  9998,2 55308  69.9989  15.1909 0003677 267.5941  92.4834 15.69922174 23602,6737.257,91.724,361.599,356.644,0.0
55308.0,STARLINK-5292,PAYLOAD,2023-06-15 23:59:03,15.69933597,0.0003859,69.9982,14.2932,274.503,85.5725,2.303e-05,2.558e-05,0.0,0 STARLINK-5292,1 55308U 23010AR  23166.99934552  .00002558  00000-0  23030-4 0  9993,2 55308  69.9982  14.2932 0003859 274.5030  85.5725 15.69933597 23658,6737.224,91.724,361.689,356.489,0.0
55308.0,STARLINK-5292,PAYLOAD,2023-06-16 09:09:34,15.6993133,0.0003765,69.9989,13.2189,266.6819,93.3947,2.7483e-05,3.094e-05,0.0,0 STARLINK-5292,1 55308U 23010AR  23167.38164552  .00003094  00000-0  27483-4 0  9994,2 55308  69.9989  13.2189 0003765 266.6819  93.3947 15.69931330 24906,6737.23,91.724,361.632,356.559,0.0
55308.0,STARLINK-5292,PAYLOAD,2023-06-16 13:44:50,15.69917583,0.0003649,69.9988,12.6812,265.6478,94.43,-3.737e-06,-6.62e-06,0.0,0 STARLINK-5292,1 55308U 23010AR  23167.57280189 -.00000662  00000-0 -37370-5 0  9997,2 55308  69.9988  12.6812 0003649 265.6478  94.4300 15.69917583 23742,6737.27,91.725,361.593,356.676,0.0
55308.0,STARLINK-5292,PAYLOAD,2023-06-16 19:51:50,15.69924172,0.0003623,69.9988,11.9648,262.2552,97.8232,7.5369e-06,6.93e-06,0.0,0 STARLINK-5292,1 55308U 23010AR  23167.82766525  .00000693  00000-0  75369-5 0  9990,2 55308  69.9988  11.9648 0003623 262.2552  97.8232 15.69924172 24978,6737.251,91.724,361.557,356.675,0.0
55308.0,STARLINK-5292,PAYLOAD,2023-06-17 08:05:52,15.69906294,0.0003495,69.9985,10.5329,269.5935,90.486,-2.584e-05,-3.316e-05,0.0,0 STARLINK-5292,1 55308U 23010AR  23168.33741271 -.00003316  00000-0 -25840-4 0  9993,2 55308  69.9985  10.5329 0003495 269.5935  90.4860 15.69906294 23866,6737.302,91.725,361.522,356.812,0.0
55308.0,STARLINK-5292,PAYLOAD,2023-06-17 12:41:07,15.69919301,0.0003616,69.999,9.9949,266.2016,93.8767,1.161e-05,1.183e-05,0.0,0 STARLINK-5292,1 55308U 23010AR  23168.52855681  .00001183  00000-0  11610-4 0  9993,2 55308  69.9990   9.9949 0003616 266.2016  93.8767 15.69919301 25083,6737.265,91.724,361.566,356.694,0.0
